CTC2_L_00223001-01
1 31331U 23057PN  26037.47792824  .00000000  00000+0  00000-0 0  9998
2 31331  45.0000   0.0000 0000000   0.0000   0.0000 14.24551582    10
CTC2_L_00223001-02
1 31332U 22767JV  26037.47792824  .00000000  00000+0  00000-0 0  9996
2 31332  45.0000   0.0000 0000000   0.0000  90.0000 14.24551582    10
CTC2_L_00223001-03
1 31333U 22404BO  26037.47792824  .00000000  00000+0  00000-0 0  9995
2 31333  45.0000   0.0000 0000000   0.0000 180.0000 14.24551582    11
CTC2_L_00223001-04
1 31334U 23812EN  26037.47792824  .00000000  00000+0  00000-0 0  9990
2 31334  45.0000   0.0000 0000000   0.0000 270.0000 14.24551582    12
CTC2_L_00223002-01
1 31335U 22660FY  26037.47792824  .00000000  00000+0  00000-0 0  9991
2 31335  45.0000  12.0000 0000000   0.0000  12.0000 14.24551582    10
CTC2_L_00223002-02
1 31336U 22632OV  26037.47792824  .00000000  00000+0  00000-0 0  9991
2 31336  45.0000  12.0000 0000000   0.0000 102.0000 14.24551582    11
CTC2_L_00223002-03
1 31337U 26673RN  26037.47792824  .00000000  00000+0  00000-0 0  9991
2 31337  45.0000  12.0000 0000000   0.0000 192.0000 14.24551582    11
CTC2_L_00223002-04
1 31338U 23921YV  26037.47792824  .00000000  00000+0  00000-0 0  9995
2 31338  45.0000  12.0000 0000000   0.0000 282.0000 14.24551582    12
CTC2_L_00223003-01
1 31339U 24674NR  26037.47792824  .00000000  00000+0  00000-0 0  9992
2 31339  45.0000  24.0000 0000000   0.0000  24.0000 14.24551582    10
CTC2_L_00223003-02
1 31340U 23947MO  26037.47792824  .00000000  00000+0  00000-0 0  9996
2 31340  45.0000  24.0000 0000000   0.0000 114.0000 14.24551582    12
CTC2_L_00223003-03
1 31341U 26843VU  26037.47792824  .00000000  00000+0  00000-0 0  9995
2 31341  45.0000  24.0000 0000000   0.0000 204.0000 14.24551582    13
CTC2_L_00223003-04
1 31342U 23763QN  26037.47792824  .00000000  00000+0  00000-0 0  9994
2 31342  45.0000  24.0000 0000000   0.0000 294.0000 14.24551582    13
CTC2_L_00223004-01
1 31343U 25652HN  26037.47792824  .00000000  00000+0  00000-0 0  9994
2 31343  45.0000  36.0000 0000000   0.0000  36.0000 14.24551582    11
CTC2_L_00223004-02
1 31344U 25394MY  26037.47792824  .00000000  00000+0  00000-0 0  9998
2 31344  45.0000  36.0000 0000000   0.0000 126.0000 14.24551582    12
CTC2_L_00223004-03
1 31345U 22578MI  26037.47792824  .00000000  00000+0  00000-0 0  9990
2 31345  45.0000  36.0000 0000000   0.0000 216.0000 14.24551582    13
CTC2_L_00223004-04
1 31346U 23500QL  26037.47792824  .00000000  00000+0  00000-0 0  9997
2 31346  45.0000  36.0000 0000000   0.0000 306.0000 14.24551582    14
CTC2_L_00223005-01
1 31347U 26353WH  26037.47792824  .00000000  00000+0  00000-0 0  9997
2 31347  45.0000  48.0000 0000000   0.0000  48.0000 14.24551582    11
CTC2_L_00223005-02
1 31348U 23802MS  26037.47792824  .00000000  00000+0  00000-0 0  9994
2 31348  45.0000  48.0000 0000000   0.0000 138.0000 14.24551582    12
CTC2_L_00223005-03
1 31349U 25882WH  26037.47792824  .00000000  00000+0  00000-0 0  9995
2 31349  45.0000  48.0000 0000000   0.0000 228.0000 14.24551582    13
CTC2_L_00223005-04
1 31350U 23569JU  26037.47792824  .00000000  00000+0  00000-0 0  9997
2 31350  45.0000  48.0000 0000000   0.0000 318.0000 14.24551582    15
CTC2_L_00223006-01
1 31351U 26523OK  26037.47792824  .00000000  00000+0  00000-0 0  9991
2 31351  45.0000  60.0000 0000000   0.0000  60.0000 14.24551582    14
CTC2_L_00223006-02
1 31352U 24787VX  26037.47792824  .00000000  00000+0  00000-0 0  9992
2 31352  45.0000  60.0000 0000000   0.0000 150.0000 14.24551582    15
CTC2_L_00223006-03
1 31353U 23800KW  26037.47792824  .00000000  00000+0  00000-0 0  9998
2 31353  45.0000  60.0000 0000000   0.0000 240.0000 14.24551582    16
CTC2_L_00223006-04
1 31354U 22986DN  26037.47792824  .00000000  00000+0  00000-0 0  9993
2 31354  45.0000  60.0000 0000000   0.0000 330.0000 14.24551582    17
CTC2_L_00223007-01
1 31355U 26771FF  26037.47792824  .00000000  00000+0  00000-0 0  9990
2 31355  45.0000  72.0000 0000000   0.0000  72.0000 14.24551582    14
CTC2_L_00223007-02
1 31356U 26705AJ  26037.47792824  .00000000  00000+0  00000-0 0  9998
2 31356  45.0000  72.0000 0000000   0.0000 162.0000 14.24551582    15
CTC2_L_00223007-03
1 31357U 25362IM  26037.47792824  .00000000  00000+0  00000-0 0  9997
2 31357  45.0000  72.0000 0000000   0.0000 252.0000 14.24551582    16
CTC2_L_00223007-04
1 31358U 23928XU  26037.47792824  .00000000  00000+0  00000-0 0  9994
2 31358  45.0000  72.0000 0000000   0.0000 342.0000 14.24551582    17
CTC2_L_00223008-01
1 31359U 26550PE  26037.47792824  .00000000  00000+0  00000-0 0  9999
2 31359  45.0000  84.0000 0000000   0.0000  84.0000 14.24551582    14
CTC2_L_00223008-02
1 31360U 23229EJ  26037.47792824  .00000000  00000+0  00000-0 0  9991
2 31360  45.0000  84.0000 0000000   0.0000 174.0000 14.24551582    16
CTC2_L_00223008-03
1 31361U 23277DH  26037.47792824  .00000000  00000+0  00000-0 0  9995
2 31361  45.0000  84.0000 0000000   0.0000 264.0000 14.24551582    17
CTC2_L_00223008-04
1 31362U 23610BO  26037.47792824  .00000000  00000+0  00000-0 0  9997
2 31362  45.0000  84.0000 0000000   0.0000 354.0000 14.24551582    18
CTC2_L_00223009-01
1 31363U 26824GI  26037.47792824  .00000000  00000+0  00000-0 0  9998
2 31363  45.0000  96.0000 0000000   0.0000  96.0000 14.24551582    15
CTC2_L_00223009-02
1 31364U 23750OO  26037.47792824  .00000000  00000+0  00000-0 0  9994
2 31364  45.0000  96.0000 0000000   0.0000 186.0000 14.24551582    16
CTC2_L_00223009-03
1 31365U 22406CQ  26037.47792824  .00000000  00000+0  00000-0 0  9992
2 31365  45.0000  96.0000 0000000   0.0000 276.0000 14.24551582    17
CTC2_L_00223009-04
1 31366U 23881YI  26037.47792824  .00000000  00000+0  00000-0 0  9991
2 31366  45.0000  96.0000 0000000   0.0000   6.0000 14.24551582    19
CTC2_L_00223010-01
1 31367U 25902SJ  26037.47792824  .00000000  00000+0  00000-0 0  9998
2 31367  45.0000 108.0000 0000000   0.0000 108.0000 14.24551582    17
CTC2_L_00223010-02
1 31368U 25676XU  26037.47792824  .00000000  00000+0  00000-0 0  9997
2 31368  45.0000 108.0000 0000000   0.0000 198.0000 14.24551582    17
CTC2_L_00223010-03
1 31369U 24645KJ  26037.47792824  .00000000  00000+0  00000-0 0  9993
2 31369  45.0000 108.0000 0000000   0.0000 288.0000 14.24551582    18
CTC2_L_00223010-04
1 31370U 24658AO  26037.47792824  .00000000  00000+0  00000-0 0  9999
2 31370  45.0000 108.0000 0000000   0.0000  18.0000 14.24551582    11
CTC2_L_00223011-01
1 31371U 24259AK  26037.47792824  .00000000  00000+0  00000-0 0  9997
2 31371  45.0000 120.0000 0000000   0.0000 120.0000 14.24551582    10
CTC2_L_00223011-02
1 31372U 25330WP  26037.47792824  .00000000  00000+0  00000-0 0  9999
2 31372  45.0000 120.0000 0000000   0.0000 210.0000 14.24551582    11
CTC2_L_00223011-03
1 31373U 23421CK  26037.47792824  .00000000  00000+0  00000-0 0  9999
2 31373  45.0000 120.0000 0000000   0.0000 300.0000 14.24551582    12
CTC2_L_00223011-04
1 31374U 26439VI  26037.47792824  .00000000  00000+0  00000-0 0  9992
2 31374  45.0000 120.0000 0000000   0.0000  30.0000 14.24551582    13
CTC2_L_00223012-01
1 31375U 25798CA  26037.47792824  .00000000  00000+0  00000-0 0  9990
2 31375  45.0000 132.0000 0000000   0.0000 132.0000 14.24551582    10
CTC2_L_00223012-02
1 31376U 25943IN  26037.47792824  .00000000  00000+0  00000-0 0  9993
2 31376  45.0000 132.0000 0000000   0.0000 222.0000 14.24551582    11
CTC2_L_00223012-03
1 31377U 26606XK  26037.47792824  .00000000  00000+0  00000-0 0  9991
2 31377  45.0000 132.0000 0000000   0.0000 312.0000 14.24551582    12
CTC2_L_00223012-04
1 31378U 22490KR  26037.47792824  .00000000  00000+0  00000-0 0  9999
2 31378  45.0000 132.0000 0000000   0.0000  42.0000 14.24551582    13
CTC2_L_00223013-01
1 31379U 25135QM  26037.47792824  .00000000  00000+0  00000-0 0  9999
2 31379  45.0000 144.0000 0000000   0.0000 144.0000 14.24551582    10
CTC2_L_00223013-02
1 31380U 25961KO  26037.47792824  .00000000  00000+0  00000-0 0  9998
2 31380  45.0000 144.0000 0000000   0.0000 234.0000 14.24551582    12
CTC2_L_00223013-03
1 31381U 25922JT  26037.47792824  .00000000  00000+0  00000-0 0  9996
2 31381  45.0000 144.0000 0000000   0.0000 324.0000 14.24551582    13
CTC2_L_00223013-04
1 31382U 26837OT  26037.47792824  .00000000  00000+0  00000-0 0  9993
2 31382  45.0000 144.0000 0000000   0.0000  54.0000 14.24551582    14
CTC2_L_00223014-01
1 31383U 22478HY  26037.47792824  .00000000  00000+0  00000-0 0  9991
2 31383  45.0000 156.0000 0000000   0.0000 156.0000 14.24551582    11
CTC2_L_00223014-02
1 31384U 26966OT  26037.47792824  .00000000  00000+0  00000-0 0  9998
2 31384  45.0000 156.0000 0000000   0.0000 246.0000 14.24551582    12
CTC2_L_00223014-03
1 31385U 26907DV  26037.47792824  .00000000  00000+0  00000-0 0  9994
2 31385  45.0000 156.0000 0000000   0.0000 336.0000 14.24551582    13
CTC2_L_00223014-04
1 31386U 22106UX  26037.47792824  .00000000  00000+0  00000-0 0  9992
2 31386  45.0000 156.0000 0000000   0.0000  66.0000 14.24551582    14
CTC2_L_00223015-01
1 31387U 26289VS  26037.47792824  .00000000  00000+0  00000-0 0  9999
2 31387  45.0000 168.0000 0000000   0.0000 168.0000 14.24551582    11
CTC2_L_00223015-02
1 31388U 23539DM  26037.47792824  .00000000  00000+0  00000-0 0  9995
2 31388  45.0000 168.0000 0000000   0.0000 258.0000 14.24551582    12
CTC2_L_00223015-03
1 31389U 22031XP  26037.47792824  .00000000  00000+0  00000-0 0  9992
2 31389  45.0000 168.0000 0000000   0.0000 348.0000 14.24551582    13
CTC2_L_00223015-04
1 31390U 26097YF  26037.47792824  .00000000  00000+0  00000-0 0  9990
2 31390  45.0000 168.0000 0000000   0.0000  78.0000 14.24551582    15
CTC2_L_00223016-01
1 31391U 24556AY  26037.47792824  .00000000  00000+0  00000-0 0  9999
2 31391  45.0000 180.0000 0000000   0.0000 180.0000 14.24551582    14
CTC2_L_00223016-02
1 31392U 26259ZQ  26037.47792824  .00000000  00000+0  00000-0 0  9992
2 31392  45.0000 180.0000 0000000   0.0000 270.0000 14.24551582    15
